TEVEL2-3                
1 63218U 25052J   26068.64540225  .00020365  00000+0  69446-3 0  9991
2 63218  97.3994 324.7775 0004761 105.7353 254.4413 15.30377031 54855
STARLINK-35394          
1 66023U 25232U   26068.52807082  .00033575  00000+0  11406-2 0  9991
2 66023  53.1578 104.4580 0001270  93.3560 266.7586 15.30199264 23416
